{
  "type": "FeatureCollection",
  "features": [
    {
      "type": "Feature",
      "properties": {
        "norad_id": 66580,
        "name": "STARLINK-35872",
        "group": "last-30-days",
        "lat": 40.44522979968371,
        "lon": -65.84277479451545,
        "alt_km": 337.6409387669328,
        "timestamp": "2025-12-02T17:49:10.800786+00:00",
        "meta_object_name": "STARLINK-35872",
        "meta_object_id": "2025-268Z",
        "meta_epoch": "2025-12-02T12:00:05.998752",
        "meta_mean_motion": 15.765663,
        "meta_eccentricity": 0.0001732,
        "meta_inclination": 42.9975,
        "meta_ra_of_asc_node": 181.8174,
        "meta_arg_of_pericenter": 258.3926,
        "meta_mean_anomaly": 272.3436,
        "meta_ephemeris_type": 0,
        "meta_classification_type": "U",
        "meta_norad_cat_id": 66580,
        "meta_element_set_no": 999,
        "meta_rev_at_epoch": 302,
        "meta_bstar": -0.012002,
        "meta_mean_motion_dot": -0.01738743,
        "meta_mean_motion_ddot": 0,
        "tle_line1": "1 66580U 25268Z   25336.50006943 -.01738743  00000+0 -12002-1 0  9994",
        "tle_line2": "2 66580  42.9975 181.8174 0001732 258.3926 272.3436 15.76566300  3022"
      },
      "geometry": {
        "type": "Point",
        "coordinates": [
          -65.84277479451545,
          40.44522979968371
        ]
      }
    },
    {
      "type": "Feature",
      "properties": {
        "norad_id": 66581,
        "name": "STARLINK-35744",
        "group": "last-30-days",
        "lat": 39.89104681934836,
        "lon": -63.43830384248722,
        "alt_km": 337.71778759757217,
        "timestamp": "2025-12-02T17:49:10.800797+00:00",
        "meta_object_name": "STARLINK-35744",
        "meta_object_id": "2025-268AA",
        "meta_epoch": "2025-12-02T12:00:05.998752",
        "meta_mean_motion": 15.76516234,
        "meta_eccentricity": 0.0001603,
        "meta_inclination": 42.9978,
        "meta_ra_of_asc_node": 181.8118,
        "meta_arg_of_pericenter": 266.5295,
        "meta_mean_anomaly": 266.1486,
        "meta_ephemeris_type": 0,
        "meta_classification_type": "U",
        "meta_norad_cat_id": 66581,
        "meta_element_set_no": 999,
        "meta_rev_at_epoch": 297,
        "meta_bstar": -0.011453,
        "meta_mean_motion_dot": -0.01664892,
        "meta_mean_motion_ddot": 0,
        "tle_line1": "1 66581U 25268AA  25336.50006943 -.01664892  00000+0 -11453-1 0  9997",
        "tle_line2": "2 66581  42.9978 181.8118 0001603 266.5295 266.1486 15.76516234  2971"
      },
      "geometry": {
        "type": "Point",
        "coordinates": [
          -63.43830384248722,
          39.89104681934836
        ]
      }
    },
    {
      "type": "Feature",
      "properties": {
        "norad_id": 66582,
        "name": "STARLINK-35746",
        "group": "last-30-days",
        "lat": 39.27104277988647,
        "lon": -61.0115059651552,
        "alt_km": 338.1034360407175,
        "timestamp": "2025-12-02T17:49:10.800806+00:00",
        "meta_object_name": "STARLINK-35746",
        "meta_object_id": "2025-268AB",
        "meta_epoch": "2025-12-02T12:00:05.998752",
        "meta_mean_motion": 15.7642791,
        "meta_eccentricity": 0.0001494,
        "meta_inclination": 42.9979,
        "meta_ra_of_asc_node": 181.8068,
        "meta_arg_of_pericenter": 278.3926,
        "meta_mean_anomaly": 256.3365,
        "meta_ephemeris_type": 0,
        "meta_classification_type": "U",
        "meta_norad_cat_id": 66582,
        "meta_element_set_no": 999,
        "meta_rev_at_epoch": 302,
        "meta_bstar": -0.011691,
        "meta_mean_motion_dot": -0.01689532,
        "meta_mean_motion_ddot": 0,
        "tle_line1": "1 66582U 25268AB  25336.50006943 -.01689532  00000+0 -11691-1 0  9990",
        "tle_line2": "2 66582  42.9979 181.8068 0001494 278.3926 256.3365 15.76427910  3023"
      },
      "geometry": {
        "type": "Point",
        "coordinates": [
          -61.0115059651552,
          39.27104277988647
        ]
      }
    },
    {
      "type": "Feature",
      "properties": {
        "norad_id": 66583,
        "name": "STARLINK-35941",
        "group": "last-30-days",
        "lat": 38.61209559545677,
        "lon": -58.66637635207344,
        "alt_km": 338.3023803095348,
        "timestamp": "2025-12-02T17:49:10.800818+00:00",
        "meta_object_name": "STARLINK-35941",
        "meta_object_id": "2025-268AC",
        "meta_epoch": "2025-12-02T12:00:05.998752",
        "meta_mean_motion": 15.76325623,
        "meta_eccentricity": 0.0001523,
        "meta_inclination": 42.9979,
        "meta_ra_of_asc_node": 181.8014,
        "meta_arg_of_pericenter": 273.6232,
        "meta_mean_anomaly": 263.113,
        "meta_ephemeris_type": 0,
        "meta_classification_type": "U",
        "meta_norad_cat_id": 66583,
        "meta_element_set_no": 999,
        "meta_rev_at_epoch": 302,
        "meta_bstar": -0.010984,
        "meta_mean_motion_dot": -0.0156186,
        "meta_mean_motion_ddot": 0,
        "tle_line1": "1 66583U 25268AC  25336.50006943 -.01561860  00000+0 -10984-1 0  9998",
        "tle_line2": "2 66583  42.9979 181.8014 0001523 273.6232 263.1130 15.76325623  3020"
      },
      "geometry": {
        "type": "Point",
        "coordinates": [
          -58.66637635207344,
          38.61209559545677
        ]
      }
    },
    {
      "type": "Feature",
      "properties": {
        "norad_id": 66584,
        "name": "STARLINK-35939",
        "group": "last-30-days",
        "lat": 37.91544974664945,
        "lon": -56.39075664436935,
        "alt_km": 338.42572011691846,
        "timestamp": "2025-12-02T17:49:10.800828+00:00",
        "meta_object_name": "STARLINK-35939",
        "meta_object_id": "2025-268AD",
        "meta_epoch": "2025-12-02T12:00:05.998752",
        "meta_mean_motion": 15.76249796,
        "meta_eccentricity": 0.0001572,
        "meta_inclination": 42.9981,
        "meta_ra_of_asc_node": 181.7967,
        "meta_arg_of_pericenter": 270.3003,
        "meta_mean_anomaly": 268.3953,
        "meta_ephemeris_type": 0,
        "meta_classification_type": "U",
        "meta_norad_cat_id": 66584,
        "meta_element_set_no": 999,
        "meta_rev_at_epoch": 302,
        "meta_bstar": -0.010199,
        "meta_mean_motion_dot": -0.01459155,
        "meta_mean_motion_ddot": 0,
        "tle_line1": "1 66584U 25268AD  25336.50006943 -.01459155  00000+0 -10199-1 0  9990",
        "tle_line2": "2 66584  42.9981 181.7967 0001572 270.3003 268.3953 15.76249796  3020"
      },
      "geometry": {
        "type": "Point",
        "coordinates": [
          -56.39075664436935,
          37.91544974664945
        ]
      }
    },
    {
      "type": "Feature",
      "properties": {
        "norad_id": 66585,
        "name": "STARLINK-35963",
        "group": "last-30-days",
        "lat": 37.16801453072962,
        "lon": -54.13764954894106,
        "alt_km": 338.77656143557033,
        "timestamp": "2025-12-02T17:49:10.800838+00:00",
        "meta_object_name": "STARLINK-35963",
        "meta_object_id": "2025-268AE",
        "meta_epoch": "2025-12-02T12:00:05.998752",
        "meta_mean_motion": 15.76200938,
        "meta_eccentricity": 0.0001804,
        "meta_inclination": 42.998,
        "meta_ra_of_asc_node": 181.7922,
        "meta_arg_of_pericenter": 265.368,
        "meta_mean_anomaly": 275.3148,
        "meta_ephemeris_type": 0,
        "meta_classification_type": "U",
        "meta_norad_cat_id": 66585,
        "meta_element_set_no": 999,
        "meta_rev_at_epoch": 302,
        "meta_bstar": -0.010328,
        "meta_mean_motion_dot": -0.01472697,
        "meta_mean_motion_ddot": 0,
        "tle_line1": "1 66585U 25268AE  25336.50006943 -.01472697  00000+0 -10328-1 0  9991",
        "tle_line2": "2 66585  42.9980 181.7922 0001804 265.3680 275.3148 15.76200938  3023"
      },
      "geometry": {
        "type": "Point",
        "coordinates": [
          -54.13764954894106,
          37.16801453072962
        ]
      }
    },
    {
      "type": "Feature",
      "properties": {
        "norad_id": 66586,
        "name": "TJS-21",
        "group": "last-30-days",
        "lat": 42.06745631183613,
        "lon": -140.73837774209503,
        "alt_km": 36910.26681318354,
        "timestamp": "2025-12-02T17:49:10.800852+00:00",
        "meta_object_name": "TJS-21",
        "meta_object_id": "2025-269A",
        "meta_epoch": "2025-11-22T00:38:56.616288",
        "meta_mean_motion": 2.0099221,
        "meta_eccentricity": 0.75179873,
        "meta_inclination": 51.0366,
        "meta_ra_of_asc_node": 174.7096,
        "meta_arg_of_pericenter": 225.0489,
        "meta_mean_anomaly": 41.6572,
        "meta_ephemeris_type": 0,
        "meta_classification_type": "U",
        "meta_norad_cat_id": 66586,
        "meta_element_set_no": 999,
        "meta_rev_at_epoch": 2,
        "meta_bstar": 0.00053569978,
        "meta_mean_motion_dot": 3.197e-05,
        "meta_mean_motion_ddot": 0,
        "tle_line1": "1 66586U 25269A   25326.02704417  .00003197  00000+0  53570-3 0  9990",
        "tle_line2": "2 66586  51.0366 174.7096 7517987 225.0489  41.6572  2.00992210    24"
      },
      "geometry": {
        "type": "Point",
        "coordinates": [
          -140.73837774209503,
          42.06745631183613
        ]
      }
    }
  ]
}